STARLINK-30480          
1 58069U 23158U   26068.50969982  .00008629  00000+0  32270-3 0  9998
2 58069  42.9995 245.8442 0003556 286.2390  73.8070 15.27582544135216
TEVEL2-2                
1 63219U 25052K   26068.64848259  .00020339  00000+0  69428-3 0  9991
2 63219  97.3987 324.7700 0004693 105.7930 254.3828 15.30343745 54855
